NORAD_CAT_ID,OBJECT_NAME,OBJECT_TYPE,EPOCH,MEAN_MOTION,ECCENTRICITY,INCLINATION,RA_OF_ASC_NODE,ARG_OF_PERICENTER,MEAN_ANOMALY,BSTAR,MEAN_MOTION_DOT,MEAN_MOTION_DDOT,TLE_LINE0,TLE_LINE1,TLE_LINE2,SEMIMAJOR_AXIS,PERIOD,APOGEE,PERIGEE,DECAYED
51468.0,STARLINK-3174,PAYLOAD,2022-11-18 10:57:00,15.08838381,0.0002683,53.2172,298.6179,29.1841,330.93,0.00011155,1.487e-05,0.0,0 STARLINK-3174,1 51468U 22010N   22322.45625176  .00001487  00000-0  11155-3 0  9992,2 51468  53.2172 298.6179 0002683  29.1841 330.9300 15.08838381 45071,6917.885,95.438,541.606,537.894,0.0
51468.0,STARLINK-3174,PAYLOAD,2022-11-18 15:43:09,15.0884538,0.0002656,53.2172,297.726,29.9101,330.2042,0.0001037,1.363e-05,0.0,0 STARLINK-3174,1 51468U 22010N   22322.65496676  .00001363  00000-0  10370-3 0  9996,2 51468  53.2172 297.7260 0002656  29.9101 330.2042 15.08845380 44295,6917.864000000001,95.437,541.566,537.8919999999998,0.0
51468.0,STARLINK-3174,PAYLOAD,2022-11-19 04:26:14,15.08839226,0.0002651,53.2174,295.3466,29.3935,330.7206,9.2212e-05,1.179e-05,0.0,0 STARLINK-3174,1 51468U 22010N   22323.18489128  .00001179  00000-0  92212-4 0  9990,2 51468  53.2174 295.3466 0002651  29.3935 330.7206 15.08839226 44371,6917.8830000000025,95.438,541.582,537.914,0.0
51468.0,STARLINK-3174,PAYLOAD,2022-11-19 15:33:56,15.08843839,0.0002702,53.2174,293.2651,30.5122,329.6027,9.4699e-05,1.219e-05,0.0,0 STARLINK-3174,1 51468U 22010N   22323.64856831  .00001219  00000-0  94699-4 0  9996,2 51468  53.2174 293.2651 0002702  30.5122 329.6027 15.08843839 45254,6917.869000000002,95.437,541.6030000000002,537.864,0.0
51468.0,STARLINK-3174,PAYLOAD,2022-11-20 07:27:47,15.08841569,0.0002209,53.2186,290.2916,34.8523,325.2614,4.0181e-05,3.51e-06,0.0,0 STARLINK-3174,1 51468U 22010N   22324.31097122  .00000351  00000-0  40181-4 0  9994,2 51468  53.2186 290.2916 0002209  34.8523 325.2614 15.08841569 45355,6917.876,95.437,541.269,538.212,0.0
51468.0,STARLINK-3174,PAYLOAD,2022-11-20 15:24:43,15.08839109,0.0002688,53.217,288.8056,28.406,331.7078,3.1805e-05,2.18e-06,0.0,0 STARLINK-3174,1 51468U 22010N   22324.64217367  .00000218  00000-0  31805-4 0  9990,2 51468  53.2170 288.8056 0002688  28.4060 331.7078 15.08839109 44590,6917.8830000000025,95.438,541.6080000000002,537.889,0.0
51468.0,STARLINK-3174,PAYLOAD,2022-11-21 07:18:35,15.08835263,0.0002592,53.2175,285.8319,27.4656,332.6472,8.2609e-05,1.026e-05,0.0,0 STARLINK-3174,1 51468U 22010N   22325.30457633  .00001026  00000-0  82609-4 0  9992,2 51468  53.2175 285.8319 0002592  27.4656 332.6472 15.08835263 45505,6917.895,95.438,541.553,537.967,0.0
51468.0,STARLINK-3174,PAYLOAD,2022-11-21 21:37:04,15.08828827,0.0002627,53.2171,283.1555,28.2323,331.8811,1.4777e-05,-5.3e-07,0.0,0 STARLINK-3174,1 51468U 22010N   22325.90074390 -.00000053  00000-0  14777-4 0  9994,2 51468  53.2171 283.1555 0002627  28.2323 331.8811 15.08828827 44788,6917.915,95.438,541.597,537.962,0.0
51468.0,STARLINK-3174,PAYLOAD,2022-11-22 03:58:36,15.08835671,0.0002626,53.2176,281.9667,26.4219,333.6907,7.573399999999999e-05,9.17e-06,0.0,0 STARLINK-3174,1 51468U 22010N   22326.16569870  .00000917  00000-0  75734-4 0  9993,2 51468  53.2176 281.9667 0002626  26.4219 333.6907 15.08835671 44822,6917.894,95.438,541.575,537.942,0.0
51468.0,STARLINK-3174,PAYLOAD,2022-11-23 03:49:23,15.08837335,0.0002628999999999,53.2168,277.5049,28.3128,331.8006,0.00011176,1.491e-05,0.0,0 STARLINK-3174,1 51468U 22010N   22327.15929918  .00001491  00000-0  11176-3 0  9993,2 51468  53.2168 277.5049 0002629  28.3128 331.8006 15.08837335 45786,6917.889,95.438,541.572,537.935,0.0
51468.0,STARLINK-3174,PAYLOAD,2022-11-23 13:21:43,15.08829993,0.0002709,53.2162,275.7207,27.1156,332.9977,-1.3969e-07,-2.91e-06,0.0,0 STARLINK-3174,1 51468U 22010N   22327.55674886 -.00000291  00000-0 -13969-6 0  9992,2 51468  53.2162 275.7207 0002709  27.1156 332.9977 15.08829993 45840,6917.911,95.438,541.65,537.9019999999998,0.0
51468.0,STARLINK-3174,PAYLOAD,2022-11-24 05:15:34,15.088389,0.0002694,53.2162,272.7466,26.9098,333.2033,9.5838e-05,1.237e-05,0.0,0 STARLINK-3174,1 51468U 22010N   22328.21914497  .00001237  00000-0  95838-4 0  9993,2 51468  53.2162 272.7466 0002694  26.9098 333.2033 15.08838900 45945,6917.884,95.438,541.612,537.885,0.0
51468.0,STARLINK-3174,PAYLOAD,2022-11-25 05:06:21,15.08835544,0.0002675,53.2162,268.2859,28.9137,331.2003,0.00010199,1.335e-05,0.0,0 STARLINK-3174,1 51468U 22010N   22329.21274689  .00001335  00000-0  10199-3 0  9991,2 51468  53.2162 268.2859 0002675  28.9137 331.2003 15.08835544 45289,6917.894,95.438,541.61,537.908,0.0
51468.0,STARLINK-3174,PAYLOAD,2022-11-25 13:03:16,15.08846499,0.0002697,53.2165,266.7999,27.3394,332.7739,0.00014068,1.952e-05,0.0,0 STARLINK-3174,1 51468U 22010N   22329.54394027  .00001952  00000-0  14068-3 0  9990,2 51468  53.2165 266.7999 0002697  27.3394 332.7739 15.08846499 46141,6917.861,95.437,541.591,537.86,0.0
51468.0,STARLINK-3174,PAYLOAD,2022-11-26 12:54:02,15.08854036,0.0002529,53.2155,262.3385,24.4238,335.6874,0.00010913,1.449e-05,0.0,0 STARLINK-3174,1 51468U 22010N   22330.53753106  .00001449  00000-0  10913-3 0  9994,2 51468  53.2155 262.3385 0002529  24.4238 335.6874 15.08854036 45484,6917.837,95.437,541.452,537.953,0.0
51468.0,STARLINK-3174,PAYLOAD,2022-11-26 20:50:58,15.08850254,0.0002582,53.216,260.8514,26.1755,333.9368,0.00015239,2.138e-05,0.0,0 STARLINK-3174,1 51468U 22010N   22330.86873172  .00002138  00000-0  15239-3 0  9998,2 51468  53.2160 260.8514 0002582  26.1755 333.9368 15.08850254 46342,6917.849,95.437,541.5,537.928,0.0
51468.0,STARLINK-3174,PAYLOAD,2022-11-27 04:47:54,15.08839756,0.0002723,53.2161,259.3656,27.7066,332.4071,-5.5447000000000005e-06,-3.77e-06,0.0,0 STARLINK-3174,1 51468U 22010N   22331.19993600 -.00000377  00000-0 -55447-5 0  9996,2 51468  53.2161 259.3656 0002723  27.7066 332.4071 15.08839756 46396,6917.880999999999,95.438,541.63,537.862,0.0
51468.0,STARLINK-3174,PAYLOAD,2022-11-28 04:38:42,15.08834237,0.0002813,53.2171,254.9053,29.6733,330.4418,-6.144600000000001e-05,-1.266e-05,0.0,0 STARLINK-3174,1 51468U 22010N   22332.19354491 -.00001266  00000-0 -61446-4 0  9999,2 51468  53.2171 254.9053 0002813  29.6733 330.4418 15.08834237 46540,6917.898,95.438,541.7090000000002,537.817,0.0
51468.0,STARLINK-3174,PAYLOAD,2022-11-28 12:35:37,15.08840183,0.0002831,53.217,253.4185,29.9058,330.2096,-2.573e-05,-6.98e-06,0.0,0 STARLINK-3174,1 51468U 22010N   22332.52474035 -.00000698  00000-0 -25730-4 0  9997,2 51468  53.2170 253.4185 0002831  29.9058 330.2096 15.08840183 46594,6917.88,95.438,541.703,537.786,0.0
51468.0,STARLINK-3174,PAYLOAD,2022-11-29 04:29:28,15.08847973,0.0002892,53.2167,250.4446,31.1389,328.9774,9.8107e-05,1.274e-05,0.0,0 STARLINK-3174,1 51468U 22010N   22333.18713043  .00001274  00000-0  98107-4 0  9992,2 51468  53.2167 250.4446 0002892  31.1389 328.9774 15.08847973 46698,6917.856,95.437,541.722,537.72,0.0
51468.0,STARLINK-3174,PAYLOAD,2022-11-29 18:47:56,15.08840094,0.0002909,53.2167,247.7684,32.379,327.7381,0.00016033,2.264e-05,0.0,0 STARLINK-3174,1 51468U 22010N   22333.78329314  .00002264  00000-0  16033-3 0  9999,2 51468  53.2167 247.7684 0002909  32.3790 327.7381 15.08840094 46787,6917.88,95.438,541.758,537.7330000000002,0.0
51468.0,STARLINK-3174,PAYLOAD,2022-11-30 04:20:16,15.08829355,0.0002939,53.2165,245.9841,32.4128,327.7044,6.2248e-05,7.02e-06,0.0,0 STARLINK-3174,1 51468U 22010N   22334.18074508  .00000702  00000-0  62248-4 0  9991,2 51468  53.2165 245.9841 0002939  32.4128 327.7044 15.08829355 46849,6917.913000000001,95.438,541.811,537.745,0.0
51468.0,STARLINK-3174,PAYLOAD,2022-12-01 04:11:03,15.08840887,0.0002943,53.2163,241.5237,33.4417,326.676,-1.7745e-05,-5.71e-06,0.0,0 STARLINK-3174,1 51468U 22010N   22335.17434162 -.00000571  00000-0 -17745-4 0  9995,2 51468  53.2163 241.5237 0002943  33.4417 326.6760 15.08840887 46997,6917.878000000002,95.437,541.779,537.707,0.0
51468.0,STARLINK-3174,PAYLOAD,2022-12-01 10:32:35,15.08846485,0.0002987,53.2165,240.3345,33.5952,326.5229,-8.959299999999999e-06,-4.31e-06,0.0,0 STARLINK-3174,1 51468U 22010N   22335.43929733 -.00000431  00000-0 -89593-5 0  9993,2 51468  53.2165 240.3345 0002987  33.5952 326.5229 15.08846485 46224,6917.861,95.437,541.7919999999998,537.659,0.0
51468.0,STARLINK-3174,PAYLOAD,2022-12-02 04:01:50,15.0883481,0.0002873,53.2159,237.0644,29.0799,331.0352,-0.00011722,-2.154e-05,0.0,0 STARLINK-3174,1 51468U 22010N   22336.16794830 -.00002154  00000-0 -11722-3 0  9993,2 51468  53.2159 237.0644 0002873  29.0799 331.0352 15.08834810 47144,6917.896,95.438,541.749,537.774,0.0
51468.0,STARLINK-3174,PAYLOAD,2022-12-02 10:23:23,15.08826301,0.0002839,53.2158,235.8749,31.0223,329.0936,-4.0311e-05,-9.3e-06,0.0,0 STARLINK-3174,1 51468U 22010N   22336.43291404 -.00000930  00000-0 -40311-4 0  9999,2 51468  53.2158 235.8749 0002839  31.0223 329.0936 15.08826301 46377,6917.922,95.438,541.751,537.823,0.0
51468.0,STARLINK-3174,PAYLOAD,2022-12-03 02:17:14,15.08837643,0.0002873,53.216,232.9007,31.9035,328.2131,5.404100000000001e-05,5.72e-06,0.0,0 STARLINK-3174,1 51468U 22010N   22337.09530754  .00000572  00000-0  54041-4 0  9991,2 51468  53.2160 232.9007 0002873  31.9035 328.2131 15.08837643 47283,6917.888000000001,95.438,541.74,537.765,0.0
51468.0,STARLINK-3174,PAYLOAD,2022-12-03 10:14:10,15.08841869,0.0002661,53.2165,231.4136,34.2942,325.8222,-8.2098e-05,-1.595e-05,0.0,0 STARLINK-3174,1 51468U 22010N   22337.42651015 -.00001595  00000-0 -82098-4 0  9993,2 51468  53.2165 231.4136 0002661  34.2942 325.8222 15.08841869 46528,6917.875,95.437,541.581,537.899,0.0
51468.0,STARLINK-3174,PAYLOAD,2022-12-04 02:08:02,15.08833491,0.0002987,53.2164,228.4391,32.3122,327.8052,6.1408e-05,6.89e-06,0.0,0 STARLINK-3174,1 51468U 22010N   22338.08891606  .00000689  00000-0  61408-4 0  9991,2 51468  53.2164 228.4391 0002987  32.3122 327.8052 15.08833491 47432,6917.9,95.438,541.832,537.6990000000002,0.0
